[
  {
    "city_id": "1",
    "province_id": "21",
    "province": "Nanggroe Aceh Darussalam (NAD)",
    "type": "Kabupaten",
    "city_name": "Aceh Barat",
    "postal_code": "23681"
  },
  {
    "city_id": "2",
    "province_id": "21",
    "province": "Nanggroe Aceh Darussalam (NAD)",
    "type": "Kabupaten",
    "city_name": "Aceh Barat Daya",
    "postal_code": "23764"
  },
  {
    "city_id": "3",
    "province_id": "21",
    "province": "Nanggroe Aceh Darussalam (NAD)",
    "type": "Kabupaten",
    "city_name": "Aceh Besar",
    "postal_code": "23951"
  },
  {
    "city_id": "4",
    "province_id": "21",
    "province": "Nanggroe Aceh Darussalam (NAD)",
    "type": "Kabupaten",
    "city_name": "Aceh Jaya",
    "postal_code": "23654"
  },
  {
    "city_id": "5",
    "province_id": "21",
    "province": "Nanggroe Aceh Darussalam (NAD)",
    "type": "Kabupaten",
    "city_name": "Aceh Selatan",
    "postal_code": "23719"
  },
  {
    "city_id": "6",
    "province_id": "21",
    "province": "Nanggroe Aceh Darussalam (NAD)",
    "type": "Kabupaten",
    "city_name": "Aceh Singkil",
    "postal_code": "24785"
  },
  {
    "city_id": "7",
    "province_id": "21",
    "province": "Nanggroe Aceh Darussalam (NAD)",
    "type": "Kabupaten",
    "city_name": "Aceh Tamiang",
    "postal_code": "24476"
  },
  {
    "city_id": "8",
    "province_id": "21",
    "province": "Nanggroe Aceh Darussalam (NAD)",
    "type": "Kabupaten",
    "city_name": "Aceh Tengah",
    "postal_code": "24511"
  },
  {
    "city_id": "9",
    "province_id": "21",
    "province": "Nanggroe Aceh Darussalam (NAD)",
    "type": "Kabupaten",
    "city_name": "Aceh Tenggara",
    "postal_code": "24611"
  },
  {
    "city_id": "10",
    "province_id": "21",
    "province": "Nanggroe Aceh Darussalam (NAD)",
    "type": "Kabupaten",
    "city_name": "Aceh Timur",
    "postal_code": "24454"
  },
  {
    "city_id": "11",
    "province_id": "21",
    "province": "Nanggroe Aceh Darussalam (NAD)",
    "type": "Kabupaten",
    "city_name": "Aceh Utara",
    "postal_code": "24382"
  },
  {
    "city_id": "12",
    "province_id": "32",
    "province": "Sumatera Barat",
    "type": "Kabupaten",
    "city_name": "Agam",
    "postal_code": "26411"
  },
  {
    "city_id": "13",
    "province_id": "23",
    "province": "Nusa Tenggara Timur (NTT)",
    "type": "Kabupaten",
    "city_name": "Alor",
    "postal_code": "85811"
  },
  {
    "city_id": "14",
    "province_id": "19",
    "province": "Maluku",
    "type": "Kota",
    "city_name": "Ambon",
    "postal_code": "97222"
  },
  {
    "city_id": "15",
    "province_id": "34",
    "province": "Sumatera Utara",
    "type": "Kabupaten",
    "city_name": "Asahan",
    "postal_code": "21214"
  },
  {
    "city_id": "16",
    "province_id": "24",
    "province": "Papua",
    "type": "Kabupaten",
    "city_name": "Asmat",
    "postal_code": "99777"
  },
  {
    "city_id": "17",
    "province_id": "1",
    "province": "Bali",
    "type": "Kabupaten",
    "city_name": "Badung",
    "postal_code": "80351"
  },
  {
    "city_id": "18",
    "province_id": "13",
    "province": "Kalimantan Selatan",
    "type": "Kabupaten",
    "city_name": "Balangan",
    "postal_code": "71611"
  },
  {
    "city_id": "19",
    "province_id": "15",
    "province": "Kalimantan Timur",
    "type": "Kota",
    "city_name": "Balikpapan",
    "postal_code": "76111"
  },
  {
    "city_id": "20",
    "province_id": "21",
    "province": "Nanggroe Aceh Darussalam (NAD)",
    "type": "Kota",
    "city_name": "Banda Aceh",
    "postal_code": "23238"
  },
  {
    "city_id": "21",
    "province_id": "18",
    "province": "Lampung",
    "type": "Kota",
    "city_name": "Bandar Lampung",
    "postal_code": "35139"
  },
  {
    "city_id": "22",
    "province_id": "9",
    "province": "Jawa Barat",
    "type": "Kabupaten",
    "city_name": "Bandung",
    "postal_code": "40311"
  },
  {
    "city_id": "23",
    "province_id": "9",
    "province": "Jawa Barat",
    "type": "Kota",
    "city_name": "Bandung",
    "postal_code": "40111"
  },
  {
    "city_id": "24",
    "province_id": "9",
    "province": "Jawa Barat",
    "type": "Kabupaten",
    "city_name": "Bandung Barat",
    "postal_code": "40721"
  },
  {
    "city_id": "25",
    "province_id": "29",
    "province": "Sulawesi Tengah",
    "type": "Kabupaten",
    "city_name": "Banggai",
    "postal_code": "94711"
  },
  {
    "city_id": "26",
    "province_id": "29",
    "province": "Sulawesi Tengah",
    "type": "Kabupaten",
    "city_name": "Banggai Kepulauan",
    "postal_code": "94881"
  },
  {
    "city_id": "27",
    "province_id": "2",
    "province": "Bangka Belitung",
    "type": "Kabupaten",
    "city_name": "Bangka",
    "postal_code": "33212"
  },
  {
    "city_id": "28",
    "province_id": "2",
    "province": "Bangka Belitung",
    "type": "Kabupaten",
    "city_name": "Bangka Barat",
    "postal_code": "33315"
  },
  {
    "city_id": "29",
    "province_id": "2",
    "province": "Bangka Belitung",
    "type": "Kabupaten",
    "city_name": "Bangka Selatan",
    "postal_code": "33719"
  },
  {
    "city_id": "30",
    "province_id": "2",
    "province": "Bangka Belitung",
    "type": "Kabupaten",
    "city_name": "Bangka Tengah",
    "postal_code": "33613"
  },
  {
    "city_id": "31",
    "province_id": "11",
    "province": "Jawa Timur",
    "type": "Kabupaten",
    "city_name": "Bangkalan",
    "postal_code": "69118"
  },
  {
    "city_id": "32",
    "province_id": "1",
    "province": "Bali",
    "type": "Kabupaten",
    "city_name": "Bangli",
    "postal_code": "80619"
  },
  {
    "city_id": "33",
    "province_id": "13",
    "province": "Kalimantan Selatan",
    "type": "Kabupaten",
    "city_name": "Banjar",
    "postal_code": "70619"
  },
  {
    "city_id": "34",
    "province_id": "9",
    "province": "Jawa Barat",
    "type": "Kota",
    "city_name": "Banjar",
    "postal_code": "46311"
  },
  {
    "city_id": "35",
    "province_id": "13",
    "province": "Kalimantan Selatan",
    "type": "Kota",
    "city_name": "Banjarbaru",
    "postal_code": "70712"
  },
  {
    "city_id": "36",
    "province_id": "13",
    "province": "Kalimantan Selatan",
    "type": "Kota",
    "city_name": "Banjarmasin",
    "postal_code": "70117"
  },
  {
    "city_id": "37",
    "province_id": "10",
    "province": "Jawa Tengah",
    "type": "Kabupaten",
    "city_name": "Banjarnegara",
    "postal_code": "53419"
  },
  {
    "city_id": "38",
    "province_id": "28",
    "province": "Sulawesi Selatan",
    "type": "Kabupaten",
    "city_name": "Bantaeng",
    "postal_code": "92411"
  },
  {
    "city_id": "39",
    "province_id": "5",
    "province": "DI Yogyakarta",
    "type": "Kabupaten",
    "city_name": "Bantul",
    "postal_code": "55715"
  },
  {
    "city_id": "40",
    "province_id": "33",
    "province": "Sumatera Selatan",
    "type": "Kabupaten",
    "city_name": "Banyuasin",
    "postal_code": "30911"
  },
  {
    "city_id": "41",
    "province_id": "10",
    "province": "Jawa Tengah",
    "type": "Kabupaten",
    "city_name": "Banyumas",
    "postal_code": "53114"
  },
  {
    "city_id": "42",
    "province_id": "11",
    "province": "Jawa Timur",
    "type": "Kabupaten",
    "city_name": "Banyuwangi",
    "postal_code": "68416"
  },
  {
    "city_id": "43",
    "province_id": "13",
    "province": "Kalimantan Selatan",
    "type": "Kabupaten",
    "city_name": "Barito Kuala",
    "postal_code": "70511"
  },
  {
    "city_id": "44",
    "province_id": "14",
    "province": "Kalimantan Tengah",
    "type": "Kabupaten",
    "city_name": "Barito Selatan",
    "postal_code": "73711"
  },
  {
    "city_id": "45",
    "province_id": "14",
    "province": "Kalimantan Tengah",
    "type": "Kabupaten",
    "city_name": "Barito Timur",
    "postal_code": "73671"
  },
  {
    "city_id": "46",
    "province_id": "14",
    "province": "Kalimantan Tengah",
    "type": "Kabupaten",
    "city_name": "Barito Utara",
    "postal_code": "73881"
  },
  {
    "city_id": "47",
    "province_id": "28",
    "province": "Sulawesi Selatan",
    "type": "Kabupaten",
    "city_name": "Barru",
    "postal_code": "90719"
  },
  {
    "city_id": "48",
    "province_id": "17",
    "province": "Kepulauan Riau",
    "type": "Kota",
    "city_name": "Batam",
    "postal_code": "29413"
  },
  {
    "city_id": "49",
    "province_id": "10",
    "province": "Jawa Tengah",
    "type": "Kabupaten",
    "city_name": "Batang",
    "postal_code": "51211"
  },
  {
    "city_id": "50",
    "province_id": "8",
    "province": "Jambi",
    "type": "Kabupaten",
    "city_name": "Batang Hari",
    "postal_code": "36613"
  },
  {
    "city_id": "51",
    "province_id": "11",
    "province": "Jawa Timur",
    "type": "Kota",
    "city_name": "Batu",
    "postal_code": "65311"
  },
  {
    "city_id": "52",
    "province_id": "34",
    "province": "Sumatera Utara",
    "type": "Kabupaten",
    "city_name": "Batu Bara",
    "postal_code": "21655"
  },
  {
    "city_id": "53",
    "province_id": "30",
    "province": "Sulawesi Tenggara",
    "type": "Kota",
    "city_name": "Bau-Bau",
    "postal_code": "93719"
  },
  {
    "city_id": "54",
    "province_id": "9",
    "province": "Jawa Barat",
    "type": "Kabupaten",
    "city_name": "Bekasi",
    "postal_code": "17837"
  },
  {
    "city_id": "55",
    "province_id": "9",
    "province": "Jawa Barat",
    "type": "Kota",
    "city_name": "Bekasi",
    "postal_code": "17121"
  },
  {
    "city_id": "56",
    "province_id": "2",
    "province": "Bangka Belitung",
    "type": "Kabupaten",
    "city_name": "Belitung",
    "postal_code": "33419"
  },
  {
    "city_id": "57",
    "province_id": "2",
    "province": "Bangka Belitung",
    "type": "Kabupaten",
    "city_name": "Belitung Timur",
    "postal_code": "33519"
  },
  {
    "city_id": "58",
    "province_id": "23",
    "province": "Nusa Tenggara Timur (NTT)",
    "type": "Kabupaten",
    "city_name": "Belu",
    "postal_code": "85711"
  },
  {
    "city_id": "59",
    "province_id": "21",
    "province": "Nanggroe Aceh Darussalam (NAD)",
    "type": "Kabupaten",
    "city_name": "Bener Meriah",
    "postal_code": "24581"
  },
  {
    "city_id": "60",
    "province_id": "26",
    "province": "Riau",
    "type": "Kabupaten",
    "city_name": "Bengkalis",
    "postal_code": "28719"
  },
  {
    "city_id": "61",
    "province_id": "12",
    "province": "Kalimantan Barat",
    "type": "Kabupaten",
    "city_name": "Bengkayang",
    "postal_code": "79213"
  },
  {
    "city_id": "62",
    "province_id": "4",
    "province": "Bengkulu",
    "type": "Kota",
    "city_name": "Bengkulu",
    "postal_code": "38229"
  },
  {
    "city_id": "63",
    "province_id": "4",
    "province": "Bengkulu",
    "type": "Kabupaten",
    "city_name": "Bengkulu Selatan",
    "postal_code": "38519"
  },
  {
    "city_id": "64",
    "province_id": "4",
    "province": "Bengkulu",
    "type": "Kabupaten",
    "city_name": "Bengkulu Tengah",
    "postal_code": "38319"
  },
  {
    "city_id": "65",
    "province_id": "4",
    "province": "Bengkulu",
    "type": "Kabupaten",
    "city_name": "Bengkulu Utara",
    "postal_code": "38619"
  },
  {
    "city_id": "66",
    "province_id": "15",
    "province": "Kalimantan Timur",
    "type": "Kabupaten",
    "city_name": "Berau",
    "postal_code": "77311"
  },
  {
    "city_id": "67",
    "province_id": "24",
    "province": "Papua",
    "type": "Kabupaten",
    "city_name": "Biak Numfor",
    "postal_code": "98119"
  },
  {
    "city_id": "68",
    "province_id": "22",
    "province": "Nusa Tenggara Barat (NTB)",
    "type": "Kabupaten",
    "city_name": "Bima",
    "postal_code": "84171"
  },
  {
    "city_id": "69",
    "province_id": "22",
    "province": "Nusa Tenggara Barat (NTB)",
    "type": "Kota",
    "city_name": "Bima",
    "postal_code": "84139"
  },
  {
    "city_id": "70",
    "province_id": "34",
    "province": "Sumatera Utara",
    "type": "Kota",
    "city_name": "Binjai",
    "postal_code": "20712"
  },
  {
    "city_id": "71",
    "province_id": "17",
    "province": "Kepulauan Riau",
    "type": "Kabupaten",
    "city_name": "Bintan",
    "postal_code": "29135"
  },
  {
    "city_id": "72",
    "province_id": "21",
    "province": "Nanggroe Aceh Darussalam (NAD)",
    "type": "Kabupaten",
    "city_name": "Bireuen",
    "postal_code": "24219"
  },
  {
    "city_id": "73",
    "province_id": "31",
    "province": "Sulawesi Utara",
    "type": "Kota",
    "city_name": "Bitung",
    "postal_code": "95512"
  },
  {
    "city_id": "74",
    "province_id": "11",
    "province": "Jawa Timur",
    "type": "Kabupaten",
    "city_name": "Blitar",
    "postal_code": "66171"
  },
  {
    "city_id": "75",
    "province_id": "11",
    "province": "Jawa Timur",
    "type": "Kota",
    "city_name": "Blitar",
    "postal_code": "66124"
  },
  {
    "city_id": "76",
    "province_id": "10",
    "province": "Jawa Tengah",
    "type": "Kabupaten",
    "city_name": "Blora",
    "postal_code": "58219"
  },
  {
    "city_id": "77",
    "province_id": "7",
    "province": "Gorontalo",
    "type": "Kabupaten",
    "city_name": "Boalemo",
    "postal_code": "96319"
  },
  {
    "city_id": "78",
    "province_id": "9",
    "province": "Jawa Barat",
    "type": "Kabupaten",
    "city_name": "Bogor",
    "postal_code": "16911"
  },
  {
    "city_id": "79",
    "province_id": "9",
    "province": "Jawa Barat",
    "type": "Kota",
    "city_name": "Bogor",
    "postal_code": "16119"
  },
  {
    "city_id": "80",
    "province_id": "11",
    "province": "Jawa Timur",
    "type": "Kabupaten",
    "city_name": "Bojonegoro",
    "postal_code": "62119"
  },
  {
    "city_id": "81",
    "province_id": "31",
    "province": "Sulawesi Utara",
    "type": "Kabupaten",
    "city_name": "Bolaang Mongondow (Bolmong)",
    "postal_code": "95755"
  },
  {
    "city_id": "82",
    "province_id": "31",
    "province": "Sulawesi Utara",
    "type": "Kabupaten",
    "city_name": "Bolaang Mongondow Selatan",
    "postal_code": "95774"
  },
  {
    "city_id": "83",
    "province_id": "31",
    "province": "Sulawesi Utara",
    "type": "Kabupaten",
    "city_name": "Bolaang Mongondow Timur",
    "postal_code": "95783"
  },
  {
    "city_id": "84",
    "province_id": "31",
    "province": "Sulawesi Utara",
    "type": "Kabupaten",
    "city_name": "Bolaang Mongondow Utara",
    "postal_code": "95765"
  },
  {
    "city_id": "85",
    "province_id": "30",
    "province": "Sulawesi Tenggara",
    "type": "Kabupaten",
    "city_name": "Bombana",
    "postal_code": "93771"
  },
  {
    "city_id": "86",
    "province_id": "11",
    "province": "Jawa Timur",
    "type": "Kabupaten",
    "city_name": "Bondowoso",
    "postal_code": "68219"
  },
  {
    "city_id": "87",
    "province_id": "28",
    "province": "Sulawesi Selatan",
    "type": "Kabupaten",
    "city_name": "Bone",
    "postal_code": "92713"
  },
  {
    "city_id": "88",
    "province_id": "7",
    "province": "Gorontalo",
    "type": "Kabupaten",
    "city_name": "Bone Bolango",
    "postal_code": "96511"
  },
  {
    "city_id": "89",
    "province_id": "15",
    "province": "Kalimantan Timur",
    "type": "Kota",
    "city_name": "Bontang",
    "postal_code": "75313"
  },
  {
    "city_id": "90",
    "province_id": "24",
    "province": "Papua",
    "type": "Kabupaten",
    "city_name": "Boven Digoel",
    "postal_code": "99662"
  },
  {
    "city_id": "91",
    "province_id": "10",
    "province": "Jawa Tengah",
    "type": "Kabupaten",
    "city_name": "Boyolali",
    "postal_code": "57312"
  },
  {
    "city_id": "92",
    "province_id": "10",
    "province": "Jawa Tengah",
    "type": "Kabupaten",
    "city_name": "Brebes",
    "postal_code": "52212"
  },
  {
    "city_id": "93",
    "province_id": "32",
    "province": "Sumatera Barat",
    "type": "Kota",
    "city_name": "Bukittinggi",
    "postal_code": "26115"
  },
  {
    "city_id": "94",
    "province_id": "1",
    "province": "Bali",
    "type": "Kabupaten",
    "city_name": "Buleleng",
    "postal_code": "81111"
  },
  {
    "city_id": "95",
    "province_id": "28",
    "province": "Sulawesi Selatan",
    "type": "Kabupaten",
    "city_name": "Bulukumba",
    "postal_code": "92511"
  },
  {
    "city_id": "96",
    "province_id": "16",
    "province": "Kalimantan Utara",
    "type": "Kabupaten",
    "city_name": "Bulungan (Bulongan)",
    "postal_code": "77211"
  },
  {
    "city_id": "97",
    "province_id": "8",
    "province": "Jambi",
    "type": "Kabupaten",
    "city_name": "Bungo",
    "postal_code": "37216"
  },
  {
    "city_id": "98",
    "province_id": "29",
    "province": "Sulawesi Tengah",
    "type": "Kabupaten",
    "city_name": "Buol",
    "postal_code": "94564"
  },
  {
    "city_id": "99",
    "province_id": "19",
    "province": "Maluku",
    "type": "Kabupaten",
    "city_name": "Buru",
    "postal_code": "97371"
  },
  {
    "city_id": "100",
    "province_id": "19",
    "province": "Maluku",
    "type": "Kabupaten",
    "city_name": "Buru Selatan",
    "postal_code": "97351"
  },
  {
    "city_id": "101",
    "province_id": "30",
    "province": "Sulawesi Tenggara",
    "type": "Kabupaten",
    "city_name": "Buton",
    "postal_code": "93754"
  },
  {
    "city_id": "102",
    "province_id": "30",
    "province": "Sulawesi Tenggara",
    "type": "Kabupaten",
    "city_name": "Buton Utara",
    "postal_code": "93745"
  },
  {
    "city_id": "103",
    "province_id": "9",
    "province": "Jawa Barat",
    "type": "Kabupaten",
    "city_name": "Ciamis",
    "postal_code": "46211"
  },
  {
    "city_id": "104",
    "province_id": "9",
    "province": "Jawa Barat",
    "type": "Kabupaten",
    "city_name": "Cianjur",
    "postal_code": "43217"
  },
  {
    "city_id": "105",
    "province_id": "10",
    "province": "Jawa Tengah",
    "type": "Kabupaten",
    "city_name": "Cilacap",
    "postal_code": "53211"
  },
  {
    "city_id": "106",
    "province_id": "3",
    "province": "Banten",
    "type": "Kota",
    "city_name": "Cilegon",
    "postal_code": "42417"
  },
  {
    "city_id": "107",
    "province_id": "9",
    "province": "Jawa Barat",
    "type": "Kota",
    "city_name": "Cimahi",
    "postal_code": "40512"
  },
  {
    "city_id": "108",
    "province_id": "9",
    "province": "Jawa Barat",
    "type": "Kabupaten",
    "city_name": "Cirebon",
    "postal_code": "45611"
  },
  {
    "city_id": "109",
    "province_id": "9",
    "province": "Jawa Barat",
    "type": "Kota",
    "city_name": "Cirebon",
    "postal_code": "45116"
  },
  {
    "city_id": "110",
    "province_id": "34",
    "province": "Sumatera Utara",
    "type": "Kabupaten",
    "city_name": "Dairi",
    "postal_code": "22211"
  },
  {
    "city_id": "111",
    "province_id": "24",
    "province": "Papua",
    "type": "Kabupaten",
    "city_name": "Deiyai (Deliyai)",
    "postal_code": "98784"
  },
  {
    "city_id": "112",
    "province_id": "34",
    "province": "Sumatera Utara",
    "type": "Kabupaten",
    "city_name": "Deli Serdang",
    "postal_code": "20511"
  },
  {
    "city_id": "113",
    "province_id": "10",
    "province": "Jawa Tengah",
    "type": "Kabupaten",
    "city_name": "Demak",
    "postal_code": "59519"
  },
  {
    "city_id": "114",
    "province_id": "1",
    "province": "Bali",
    "type": "Kota",
    "city_name": "Denpasar",
    "postal_code": "80227"
  },
  {
    "city_id": "115",
    "province_id": "9",
    "province": "Jawa Barat",
    "type": "Kota",
    "city_name": "Depok",
    "postal_code": "16416"
  },
  {
    "city_id": "116",
    "province_id": "32",
    "province": "Sumatera Barat",
    "type": "Kabupaten",
    "city_name": "Dharmasraya",
    "postal_code": "27612"
  },
  {
    "city_id": "117",
    "province_id": "24",
    "province": "Papua",
    "type": "Kabupaten",
    "city_name": "Dogiyai",
    "postal_code": "98866"
  },
  {
    "city_id": "118",
    "province_id": "22",
    "province": "Nusa Tenggara Barat (NTB)",
    "type": "Kabupaten",
    "city_name": "Dompu",
    "postal_code": "84217"
  },
  {
    "city_id": "119",
    "province_id": "29",
    "province": "Sulawesi Tengah",
    "type": "Kabupaten",
    "city_name": "Donggala",
    "postal_code": "94341"
  },
  {
    "city_id": "120",
    "province_id": "26",
    "province": "Riau",
    "type": "Kota",
    "city_name": "Dumai",
    "postal_code": "28811"
  },
  {
    "city_id": "121",
    "province_id": "33",
    "province": "Sumatera Selatan",
    "type": "Kabupaten",
    "city_name": "Empat Lawang",
    "postal_code": "31811"
  },
  {
    "city_id": "122",
    "province_id": "23",
    "province": "Nusa Tenggara Timur (NTT)",
    "type": "Kabupaten",
    "city_name": "Ende",
    "postal_code": "86351"
  },
  {
    "city_id": "123",
    "province_id": "28",
    "province": "Sulawesi Selatan",
    "type": "Kabupaten",
    "city_name": "Enrekang",
    "postal_code": "91719"
  },
  {
    "city_id": "124",
    "province_id": "25",
    "province": "Papua Barat",
    "type": "Kabupaten",
    "city_name": "Fakfak",
    "postal_code": "98651"
  },
  {
    "city_id": "125",
    "province_id": "23",
    "province": "Nusa Tenggara Timur (NTT)",
    "type": "Kabupaten",
    "city_name": "Flores Timur",
    "postal_code": "86213"
  },
  {
    "city_id": "126",
    "province_id": "9",
    "province": "Jawa Barat",
    "type": "Kabupaten",
    "city_name": "Garut",
    "postal_code": "44126"
  },
  {
    "city_id": "127",
    "province_id": "21",
    "province": "Nanggroe Aceh Darussalam (NAD)",
    "type": "Kabupaten",
    "city_name": "Gayo Lues",
    "postal_code": "24653"
  },
  {
    "city_id": "128",
    "province_id": "1",
    "province": "Bali",
    "type": "Kabupaten",
    "city_name": "Gianyar",
    "postal_code": "80519"
  },
  {
    "city_id": "129",
    "province_id": "7",
    "province": "Gorontalo",
    "type": "Kabupaten",
    "city_name": "Gorontalo",
    "postal_code": "96218"
  },
  {
    "city_id": "130",
    "province_id": "7",
    "province": "Gorontalo",
    "type": "Kota",
    "city_name": "Gorontalo",
    "postal_code": "96115"
  },
  {
    "city_id": "131",
    "province_id": "7",
    "province": "Gorontalo",
    "type": "Kabupaten",
    "city_name": "Gorontalo Utara",
    "postal_code": "96611"
  },
  {
    "city_id": "132",
    "province_id": "28",
    "province": "Sulawesi Selatan",
    "type": "Kabupaten",
    "city_name": "Gowa",
    "postal_code": "92111"
  },
  {
    "city_id": "133",
    "province_id": "11",
    "province": "Jawa Timur",
    "type": "Kabupaten",
    "city_name": "Gresik",
    "postal_code": "61115"
  },
  {
    "city_id": "134",
    "province_id": "10",
    "province": "Jawa Tengah",
    "type": "Kabupaten",
    "city_name": "Grobogan",
    "postal_code": "58111"
  },
  {
    "city_id": "135",
    "province_id": "5",
    "province": "DI Yogyakarta",
    "type": "Kabupaten",
    "city_name": "Gunung Kidul",
    "postal_code": "55812"
  },
  {
    "city_id": "136",
    "province_id": "14",
    "province": "Kalimantan Tengah",
    "type": "Kabupaten",
    "city_name": "Gunung Mas",
    "postal_code": "74511"
  },
  {
    "city_id": "137",
    "province_id": "34",
    "province": "Sumatera Utara",
    "type": "Kota",
    "city_name": "Gunungsitoli",
    "postal_code": "22813"
  },
  {
    "city_id": "138",
    "province_id": "20",
    "province": "Maluku Utara",
    "type": "Kabupaten",
    "city_name": "Halmahera Barat",
    "postal_code": "97757"
  },
  {
    "city_id": "139",
    "province_id": "20",
    "province": "Maluku Utara",
    "type": "Kabupaten",
    "city_name": "Halmahera Selatan",
    "postal_code": "97911"
  },
  {
    "city_id": "140",
    "province_id": "20",
    "province": "Maluku Utara",
    "type": "Kabupaten",
    "city_name": "Halmahera Tengah",
    "postal_code": "97853"
  },
  {
    "city_id": "141",
    "province_id": "20",
    "province": "Maluku Utara",
    "type": "Kabupaten",
    "city_name": "Halmahera Timur",
    "postal_code": "97862"
  },
  {
    "city_id": "142",
    "province_id": "20",
    "province": "Maluku Utara",
    "type": "Kabupaten",
    "city_name": "Halmahera Utara",
    "postal_code": "97762"
  },
  {
    "city_id": "143",
    "province_id": "13",
    "province": "Kalimantan Selatan",
    "type": "Kabupaten",
    "city_name": "Hulu Sungai Selatan",
    "postal_code": "71212"
  },
  {
    "city_id": "144",
    "province_id": "13",
    "province": "Kalimantan Selatan",
    "type": "Kabupaten",
    "city_name": "Hulu Sungai Tengah",
    "postal_code": "71313"
  },
  {
    "city_id": "145",
    "province_id": "13",
    "province": "Kalimantan Selatan",
    "type": "Kabupaten",
    "city_name": "Hulu Sungai Utara",
    "postal_code": "71419"
  },
  {
    "city_id": "146",
    "province_id": "34",
    "province": "Sumatera Utara",
    "type": "Kabupaten",
    "city_name": "Humbang Hasundutan",
    "postal_code": "22457"
  },
  {
    "city_id": "147",
    "province_id": "26",
    "province": "Riau",
    "type": "Kabupaten",
    "city_name": "Indragiri Hilir",
    "postal_code": "29212"
  },
  {
    "city_id": "148",
    "province_id": "26",
    "province": "Riau",
    "type": "Kabupaten",
    "city_name": "Indragiri Hulu",
    "postal_code": "29319"
  },
  {
    "city_id": "149",
    "province_id": "9",
    "province": "Jawa Barat",
    "type": "Kabupaten",
    "city_name": "Indramayu",
    "postal_code": "45214"
  },
  {
    "city_id": "150",
    "province_id": "24",
    "province": "Papua",
    "type": "Kabupaten",
    "city_name": "Intan Jaya",
    "postal_code": "98771"
  },
  {
    "city_id": "151",
    "province_id": "6",
    "province": "DKI Jakarta",
    "type": "Kota",
    "city_name": "Jakarta Barat",
    "postal_code": "11220"
  },
  {
    "city_id": "152",
    "province_id": "6",
    "province": "DKI Jakarta",
    "type": "Kota",
    "city_name": "Jakarta Pusat",
    "postal_code": "10540"
  },
  {
    "city_id": "153",
    "province_id": "6",
    "province": "DKI Jakarta",
    "type": "Kota",
    "city_name": "Jakarta Selatan",
    "postal_code": "12230"
  },
  {
    "city_id": "154",
    "province_id": "6",
    "province": "DKI Jakarta",
    "type": "Kota",
    "city_name": "Jakarta Timur",
    "postal_code": "13330"
  },
  {
    "city_id": "155",
    "province_id": "6",
    "province": "DKI Jakarta",
    "type": "Kota",
    "city_name": "Jakarta Utara",
    "postal_code": "14140"
  },
  {
    "city_id": "156",
    "province_id": "8",
    "province": "Jambi",
    "type": "Kota",
    "city_name": "Jambi",
    "postal_code": "36111"
  },
  {
    "city_id": "157",
    "province_id": "24",
    "province": "Papua",
    "type": "Kabupaten",
    "city_name": "Jayapura",
    "postal_code": "99352"
  },
  {
    "city_id": "158",
    "province_id": "24",
    "province": "Papua",
    "type": "Kota",
    "city_name": "Jayapura",
    "postal_code": "99114"
  },
  {
    "city_id": "159",
    "province_id": "24",
    "province": "Papua",
    "type": "Kabupaten",
    "city_name": "Jayawijaya",
    "postal_code": "99511"
  },
  {
    "city_id": "160",
    "province_id": "11",
    "province": "Jawa Timur",
    "type": "Kabupaten",
    "city_name": "Jember",
    "postal_code": "68113"
  },
  {
    "city_id": "161",
    "province_id": "1",
    "province": "Bali",
    "type": "Kabupaten",
    "city_name": "Jembrana",
    "postal_code": "82251"
  },
  {
    "city_id": "162",
    "province_id": "28",
    "province": "Sulawesi Selatan",
    "type": "Kabupaten",
    "city_name": "Jeneponto",
    "postal_code": "92319"
  },
  {
    "city_id": "163",
    "province_id": "10",
    "province": "Jawa Tengah",
    "type": "Kabupaten",
    "city_name": "Jepara",
    "postal_code": "59419"
  },
  {
    "city_id": "164",
    "province_id": "11",
    "province": "Jawa Timur",
    "type": "Kabupaten",
    "city_name": "Jombang",
    "postal_code": "61415"
  },
  {
    "city_id": "165",
    "province_id": "25",
    "province": "Papua Barat",
    "type": "Kabupaten",
    "city_name": "Kaimana",
    "postal_code": "98671"
  },
  {
    "city_id": "166",
    "province_id": "26",
    "province": "Riau",
    "type": "Kabupaten",
    "city_name": "Kampar",
    "postal_code": "28411"
  },
  {
    "city_id": "167",
    "province_id": "14",
    "province": "Kalimantan Tengah",
    "type": "Kabupaten",
    "city_name": "Kapuas",
    "postal_code": "73583"
  },
  {
    "city_id": "168",
    "province_id": "12",
    "province": "Kalimantan Barat",
    "type": "Kabupaten",
    "city_name": "Kapuas Hulu",
    "postal_code": "78719"
  },
  {
    "city_id": "169",
    "province_id": "10",
    "province": "Jawa Tengah",
    "type": "Kabupaten",
    "city_name": "Karanganyar",
    "postal_code": "57718"
  },
  {
    "city_id": "170",
    "province_id": "1",
    "province": "Bali",
    "type": "Kabupaten",
    "city_name": "Karangasem",
    "postal_code": "80819"
  },
  {
    "city_id": "171",
    "province_id": "9",
    "province": "Jawa Barat",
    "type": "Kabupaten",
    "city_name": "Karawang",
    "postal_code": "41311"
  },
  {
    "city_id": "172",
    "province_id": "17",
    "province": "Kepulauan Riau",
    "type": "Kabupaten",
    "city_name": "Karimun",
    "postal_code": "29611"
  },
  {
    "city_id": "173",
    "province_id": "34",
    "province": "Sumatera Utara",
    "type": "Kabupaten",
    "city_name": "Karo",
    "postal_code": "22119"
  },
  {
    "city_id": "174",
    "province_id": "14",
    "province": "Kalimantan Tengah",
    "type": "Kabupaten",
    "city_name": "Katingan",
    "postal_code": "74411"
  },
  {
    "city_id": "175",
    "province_id": "4",
    "province": "Bengkulu",
    "type": "Kabupaten",
    "city_name": "Kaur",
    "postal_code": "38911"
  },
  {
    "city_id": "176",
    "province_id": "12",
    "province": "Kalimantan Barat",
    "type": "Kabupaten",
    "city_name": "Kayong Utara",
    "postal_code": "78852"
  },
  {
    "city_id": "177",
    "province_id": "10",
    "province": "Jawa Tengah",
    "type": "Kabupaten",
    "city_name": "Kebumen",
    "postal_code": "54319"
  },
  {
    "city_id": "178",
    "province_id": "11",
    "province": "Jawa Timur",
    "type": "Kabupaten",
    "city_name": "Kediri",
    "postal_code": "64184"
  },
  {
    "city_id": "179",
    "province_id": "11",
    "province": "Jawa Timur",
    "type": "Kota",
    "city_name": "Kediri",
    "postal_code": "64125"
  },
  {
    "city_id": "180",
    "province_id": "24",
    "province": "Papua",
    "type": "Kabupaten",
    "city_name": "Keerom",
    "postal_code": "99461"
  },
  {
    "city_id": "181",
    "province_id": "10",
    "province": "Jawa Tengah",
    "type": "Kabupaten",
    "city_name": "Kendal",
    "postal_code": "51314"
  },
  {
    "city_id": "182",
    "province_id": "30",
    "province": "Sulawesi Tenggara",
    "type": "Kota",
    "city_name": "Kendari",
    "postal_code": "93126"
  },
  {
    "city_id": "183",
    "province_id": "4",
    "province": "Bengkulu",
    "type": "Kabupaten",
    "city_name": "Kepahiang",
    "postal_code": "39319"
  },
  {
    "city_id": "184",
    "province_id": "17",
    "province": "Kepulauan Riau",
    "type": "Kabupaten",
    "city_name": "Kepulauan Anambas",
    "postal_code": "29991"
  },
  {
    "city_id": "185",
    "province_id": "19",
    "province": "Maluku",
    "type": "Kabupaten",
    "city_name": "Kepulauan Aru",
    "postal_code": "97681"
  },
  {
    "city_id": "186",
    "province_id": "32",
    "province": "Sumatera Barat",
    "type": "Kabupaten",
    "city_name": "Kepulauan Mentawai",
    "postal_code": "25771"
  },
  {
    "city_id": "187",
    "province_id": "26",
    "province": "Riau",
    "type": "Kabupaten",
    "city_name": "Kepulauan Meranti",
    "postal_code": "28791"
  },
  {
    "city_id": "188",
    "province_id": "31",
    "province": "Sulawesi Utara",
    "type": "Kabupaten",
    "city_name": "Kepulauan Sangihe",
    "postal_code": "95819"
  },
  {
    "city_id": "189",
    "province_id": "6",
    "province": "DKI Jakarta",
    "type": "Kabupaten",
    "city_name": "Kepulauan Seribu",
    "postal_code": "14550"
  },
  {
    "city_id": "190",
    "province_id": "31",
    "province": "Sulawesi Utara",
    "type": "Kabupaten",
    "city_name": "Kepulauan Siau Tagulandang Biaro (Sitaro)",
    "postal_code": "95862"
  },
  {
    "city_id": "191",
    "province_id": "20",
    "province": "Maluku Utara",
    "type": "Kabupaten",
    "city_name": "Kepulauan Sula",
    "postal_code": "97995"
  },
  {
    "city_id": "192",
    "province_id": "31",
    "province": "Sulawesi Utara",
    "type": "Kabupaten",
    "city_name": "Kepulauan Talaud",
    "postal_code": "95885"
  },
  {
    "city_id": "193",
    "province_id": "24",
    "province": "Papua",
    "type": "Kabupaten",
    "city_name": "Kepulauan Yapen (Yapen Waropen)",
    "postal_code": "98211"
  },
  {
    "city_id": "194",
    "province_id": "8",
    "province": "Jambi",
    "type": "Kabupaten",
    "city_name": "Kerinci",
    "postal_code": "37167"
  },
  {
    "city_id": "195",
    "province_id": "12",
    "province": "Kalimantan Barat",
    "type": "Kabupaten",
    "city_name": "Ketapang",
    "postal_code": "78874"
  },
  {
    "city_id": "196",
    "province_id": "10",
    "province": "Jawa Tengah",
    "type": "Kabupaten",
    "city_name": "Klaten",
    "postal_code": "57411"
  },
  {
    "city_id": "197",
    "province_id": "1",
    "province": "Bali",
    "type": "Kabupaten",
    "city_name": "Klungkung",
    "postal_code": "80719"
  },
  {
    "city_id": "198",
    "province_id": "30",
    "province": "Sulawesi Tenggara",
    "type": "Kabupaten",
    "city_name": "Kolaka",
    "postal_code": "93511"
  },
  {
    "city_id": "199",
    "province_id": "30",
    "province": "Sulawesi Tenggara",
    "type": "Kabupaten",
    "city_name": "Kolaka Utara",
    "postal_code": "93911"
  },
  {
    "city_id": "200",
    "province_id": "30",
    "province": "Sulawesi Tenggara",
    "type": "Kabupaten",
    "city_name": "Konawe",
    "postal_code": "93411"
  },
  {
    "city_id": "201",
    "province_id": "30",
    "province": "Sulawesi Tenggara",
    "type": "Kabupaten",
    "city_name": "Konawe Selatan",
    "postal_code": "93811"
  },
  {
    "city_id": "202",
    "province_id": "30",
    "province": "Sulawesi Tenggara",
    "type": "Kabupaten",
    "city_name": "Konawe Utara",
    "postal_code": "93311"
  },
  {
    "city_id": "203",
    "province_id": "13",
    "province": "Kalimantan Selatan",
    "type": "Kabupaten",
    "city_name": "Kotabaru",
    "postal_code": "72119"
  },
  {
    "city_id": "204",
    "province_id": "31",
    "province": "Sulawesi Utara",
    "type": "Kota",
    "city_name": "Kotamobagu",
    "postal_code": "95711"
  },
  {
    "city_id": "205",
    "province_id": "14",
    "province": "Kalimantan Tengah",
    "type": "Kabupaten",
    "city_name": "Kotawaringin Barat",
    "postal_code": "74119"
  },
  {
    "city_id": "206",
    "province_id": "14",
    "province": "Kalimantan Tengah",
    "type": "Kabupaten",
    "city_name": "Kotawaringin Timur",
    "postal_code": "74364"
  },
  {
    "city_id": "207",
    "province_id": "26",
    "province": "Riau",
    "type": "Kabupaten",
    "city_name": "Kuantan Singingi",
    "postal_code": "29519"
  },
  {
    "city_id": "208",
    "province_id": "12",
    "province": "Kalimantan Barat",
    "type": "Kabupaten",
    "city_name": "Kubu Raya",
    "postal_code": "78311"
  },
  {
    "city_id": "209",
    "province_id": "10",
    "province": "Jawa Tengah",
    "type": "Kabupaten",
    "city_name": "Kudus",
    "postal_code": "59311"
  },
  {
    "city_id": "210",
    "province_id": "5",
    "province": "DI Yogyakarta",
    "type": "Kabupaten",
    "city_name": "Kulon Progo",
    "postal_code": "55611"
  },
  {
    "city_id": "211",
    "province_id": "9",
    "province": "Jawa Barat",
    "type": "Kabupaten",
    "city_name": "Kuningan",
    "postal_code": "45511"
  },
  {
    "city_id": "212",
    "province_id": "23",
    "province": "Nusa Tenggara Timur (NTT)",
    "type": "Kabupaten",
    "city_name": "Kupang",
    "postal_code": "85362"
  },
  {
    "city_id": "213",
    "province_id": "23",
    "province": "Nusa Tenggara Timur (NTT)",
    "type": "Kota",
    "city_name": "Kupang",
    "postal_code": "85119"
  },
  {
    "city_id": "214",
    "province_id": "15",
    "province": "Kalimantan Timur",
    "type": "Kabupaten",
    "city_name": "Kutai Barat",
    "postal_code": "75711"
  },
  {
    "city_id": "215",
    "province_id": "15",
    "province": "Kalimantan Timur",
    "type": "Kabupaten",
    "city_name": "Kutai Kartanegara",
    "postal_code": "75511"
  },
  {
    "city_id": "216",
    "province_id": "15",
    "province": "Kalimantan Timur",
    "type": "Kabupaten",
    "city_name": "Kutai Timur",
    "postal_code": "75611"
  },
  {
    "city_id": "217",
    "province_id": "34",
    "province": "Sumatera Utara",
    "type": "Kabupaten",
    "city_name": "Labuhan Batu",
    "postal_code": "21412"
  },
  {
    "city_id": "218",
    "province_id": "34",
    "province": "Sumatera Utara",
    "type": "Kabupaten",
    "city_name": "Labuhan Batu Selatan",
    "postal_code": "21511"
  },
  {
    "city_id": "219",
    "province_id": "34",
    "province": "Sumatera Utara",
    "type": "Kabupaten",
    "city_name": "Labuhan Batu Utara",
    "postal_code": "21711"
  },
  {
    "city_id": "220",
    "province_id": "33",
    "province": "Sumatera Selatan",
    "type": "Kabupaten",
    "city_name": "Lahat",
    "postal_code": "31419"
  },
  {
    "city_id": "221",
    "province_id": "14",
    "province": "Kalimantan Tengah",
    "type": "Kabupaten",
    "city_name": "Lamandau",
    "postal_code": "74611"
  },
  {
    "city_id": "222",
    "province_id": "11",
    "province": "Jawa Timur",
    "type": "Kabupaten",
    "city_name": "Lamongan",
    "postal_code": "64125"
  },
  {
    "city_id": "223",
    "province_id": "18",
    "province": "Lampung",
    "type": "Kabupaten",
    "city_name": "Lampung Barat",
    "postal_code": "34814"
  },
  {
    "city_id": "224",
    "province_id": "18",
    "province": "Lampung",
    "type": "Kabupaten",
    "city_name": "Lampung Selatan",
    "postal_code": "35511"
  },
  {
    "city_id": "225",
    "province_id": "18",
    "province": "Lampung",
    "type": "Kabupaten",
    "city_name": "Lampung Tengah",
    "postal_code": "34212"
  },
  {
    "city_id": "226",
    "province_id": "18",
    "province": "Lampung",
    "type": "Kabupaten",
    "city_name": "Lampung Timur",
    "postal_code": "34319"
  },
  {
    "city_id": "227",
    "province_id": "18",
    "province": "Lampung",
    "type": "Kabupaten",
    "city_name": "Lampung Utara",
    "postal_code": "34516"
  },
  {
    "city_id": "228",
    "province_id": "12",
    "province": "Kalimantan Barat",
    "type": "Kabupaten",
    "city_name": "Landak",
    "postal_code": "78319"
  },
  {
    "city_id": "229",
    "province_id": "34",
    "province": "Sumatera Utara",
    "type": "Kabupaten",
    "city_name": "Langkat",
    "postal_code": "20811"
  },
  {
    "city_id": "230",
    "province_id": "21",
    "province": "Nanggroe Aceh Darussalam (NAD)",
    "type": "Kota",
    "city_name": "Langsa",
    "postal_code": "24412"
  },
  {
    "city_id": "231",
    "province_id": "24",
    "province": "Papua",
    "type": "Kabupaten",
    "city_name": "Lanny Jaya",
    "postal_code": "99531"
  },
  {
    "city_id": "232",
    "province_id": "3",
    "province": "Banten",
    "type": "Kabupaten",
    "city_name": "Lebak",
    "postal_code": "42319"
  },
  {
    "city_id": "233",
    "province_id": "4",
    "province": "Bengkulu",
    "type": "Kabupaten",
    "city_name": "Lebong",
    "postal_code": "39264"
  },
  {
    "city_id": "234",
    "province_id": "23",
    "province": "Nusa Tenggara Timur (NTT)",
    "type": "Kabupaten",
    "city_name": "Lembata",
    "postal_code": "86611"
  },
  {
    "city_id": "235",
    "province_id": "21",
    "province": "Nanggroe Aceh Darussalam (NAD)",
    "type": "Kota",
    "city_name": "Lhokseumawe",
    "postal_code": "24352"
  },
  {
    "city_id": "236",
    "province_id": "32",
    "province": "Sumatera Barat",
    "type": "Kabupaten",
    "city_name": "Lima Puluh Koto/Kota",
    "postal_code": "26671"
  },
  {
    "city_id": "237",
    "province_id": "17",
    "province": "Kepulauan Riau",
    "type": "Kabupaten",
    "city_name": "Lingga",
    "postal_code": "29811"
  },
  {
    "city_id": "238",
    "province_id": "22",
    "province": "Nusa Tenggara Barat (NTB)",
    "type": "Kabupaten",
    "city_name": "Lombok Barat",
    "postal_code": "83311"
  },
  {
    "city_id": "239",
    "province_id": "22",
    "province": "Nusa Tenggara Barat (NTB)",
    "type": "Kabupaten",
    "city_name": "Lombok Tengah",
    "postal_code": "83511"
  },
  {
    "city_id": "240",
    "province_id": "22",
    "province": "Nusa Tenggara Barat (NTB)",
    "type": "Kabupaten",
    "city_name": "Lombok Timur",
    "postal_code": "83612"
  },
  {
    "city_id": "241",
    "province_id": "22",
    "province": "Nusa Tenggara Barat (NTB)",
    "type": "Kabupaten",
    "city_name": "Lombok Utara",
    "postal_code": "83711"
  },
  {
    "city_id": "242",
    "province_id": "33",
    "province": "Sumatera Selatan",
    "type": "Kota",
    "city_name": "Lubuk Linggau",
    "postal_code": "31614"
  },
  {
    "city_id": "243",
    "province_id": "11",
    "province": "Jawa Timur",
    "type": "Kabupaten",
    "city_name": "Lumajang",
    "postal_code": "67319"
  },
  {
    "city_id": "244",
    "province_id": "28",
    "province": "Sulawesi Selatan",
    "type": "Kabupaten",
    "city_name": "Luwu",
    "postal_code": "91994"
  },
  {
    "city_id": "245",
    "province_id": "28",
    "province": "Sulawesi Selatan",
    "type": "Kabupaten",
    "city_name": "Luwu Timur",
    "postal_code": "92981"
  },
  {
    "city_id": "246",
    "province_id": "28",
    "province": "Sulawesi Selatan",
    "type": "Kabupaten",
    "city_name": "Luwu Utara",
    "postal_code": "92911"
  },
  {
    "city_id": "247",
    "province_id": "11",
    "province": "Jawa Timur",
    "type": "Kabupaten",
    "city_name": "Madiun",
    "postal_code": "63153"
  },
  {
    "city_id": "248",
    "province_id": "11",
    "province": "Jawa Timur",
    "type": "Kota",
    "city_name": "Madiun",
    "postal_code": "63122"
  },
  {
    "city_id": "249",
    "province_id": "10",
    "province": "Jawa Tengah",
    "type": "Kabupaten",
    "city_name": "Magelang",
    "postal_code": "56519"
  },
  {
    "city_id": "250",
    "province_id": "10",
    "province": "Jawa Tengah",
    "type": "Kota",
    "city_name": "Magelang",
    "postal_code": "56133"
  }
]